GLOBALSTAR M057         
1 25943U 99058A   24305.28793774 -.00000094  00000+0 -14086-4 0  9992
2 25943  51.9983 277.8070 0002106 278.6432  81.4178 12.24801953138884
GLOBALSTAR M059         
1 25944U 99058B   24305.43140024 -.00000051  00000+0  44196-3 0  9990
2 25944  51.9996 106.0237 0000998 114.9634 268.1776 11.99968163546586
GLOBALSTAR M056         
1 25945U 99058C   24305.51727156 -.00000012  00000+0  88419-3 0  9990
2 25945  51.9940 113.6204 0002003  92.6668 304.7816 12.04777967135068
GLOBALSTAR M031         
1 25946U 99058D   24305.32209168 -.00000079  00000+0  12030-3 0  9997
2 25946  51.9993  20.1871 0001766  85.3676 306.8345 12.16021381136709
GLOBALSTAR M039         
1 25961U 99062A   24305.57023297 -.00000071  00000+0  18244-3 0  9998
2 25961  51.9843 245.0296 0002170 192.6968 167.3844 12.62308441151342
GLOBALSTAR M034         
1 25962U 99062B   24305.57866596 -.00000071  00000+0  16096-3 0  9999
2 25962  51.9869 245.6335 0014229 332.4407 199.2267 11.79435153111416
GLOBALSTAR M029         
1 25963U 99062C   24305.52538362 -.00000039  00000+0  58340-3 0  9994
2 25963  51.9834 354.0056 0002591  33.9311  62.7672 11.99885740141678
GLOBALSTAR M061         
1 25964U 99062D   24305.62133859 -.00000071  00000+0  15784-3 0  9999
2 25964  51.9801  66.5217 0005402 249.9848 123.7011 11.76767764 94273
